OBJECT_NAME,OBJECT_ID,EPOCH,MEAN_MOTION,ECCENTRICITY,INCLINATION,RA_OF_ASC_NODE,ARG_OF_PERICENTER,MEAN_ANOMALY,EPHEMERIS_TYPE,CLASSIFICATION_TYPE,NORAD_CAT_ID,ELEMENT_SET_NO,REV_AT_EPOCH,BSTAR,MEAN_MOTION_DOT,MEAN_MOTION_DDOT
S-NET D,2018-014G,2026-06-07T05:38:54.873312,15.16577805,.0009744,97.5365,63.0881,60.1321,300.0879,0,U,43186,999,45725,.28879E-3,.5577E-4,0
S-NET B,2018-014H,2026-06-07T05:55:07.617216,15.16548674,.0010325,97.5372,63.0855,55.8139,304.4071,0,U,43187,999,45725,.2775E-3,.5353E-4,0
S-NET A,2018-014J,2026-06-07T05:37:22.475424,15.16585449,.0010216,97.5380,63.2802,56.3941,303.8265,0,U,43188,999,45725,.29119E-3,.5626E-4,0
S-NET C,2018-014K,2026-06-07T06:00:38.129184,15.16540740,.0011433,97.5395,63.3700,49.3429,310.8795,0,U,43189,999,45580,.27958E-3,.5394E-4,0
PAZ,2018-020A,2026-06-07T11:45:55.827072,15.19162973,.0001628,97.4449,166.0140,86.9449,273.1972,0,U,43215,999,45953,.10315E-3,.21E-4,0
GOES 17,2018-022A,2026-06-07T11:17:23.917344,1.00272183,.0000671,0.9116,85.8814,7.4926,242.3626,0,U,43226,999,3032,0,-.168E-5,0
LKW-4,2018-025A,2026-06-07T05:06:35.675424,15.61484849,.0001878,97.6345,328.3116,346.8289,13.2919,0,U,43236,999,45847,.51177E-3,.43798E-3,0
ZHUHAI-1 OVS-02,2018-040B,2026-06-07T12:28:53.928768,15.24895740,.0001683,97.0395,176.3238,313.8328,46.2772,0,U,43440,999,45124,.3233E-3,.7978E-4,0
ZHUHAI-1 OHS-02,2018-040C,2026-06-07T12:15:10.346688,15.25740935,.0007309,97.0378,183.2447,262.0569,97.9841,0,U,43441,999,11280,.31436E-3,.796E-4,0
GAOFEN-6,2018-048A,2026-06-07T12:23:34.976256,14.76620977,.001125,97.7757,221.5552,200.2583,159.8182,0,U,43484,999,43196,.6651E-4,.416E-5,0
LUOJIA-1 01,2018-048B,2026-06-07T11:39:58.610592,14.87250390,.0009671,97.8094,236.8298,146.1073,214.0763,0,U,43485,999,43277,.33664E-3,.2982E-4,0
PAKTES 1A,2018-056A,2026-06-07T12:38:02.497920,14.99065091,.0022415,98.1305,314.6005,136.4623,223.8373,0,U,43529,999,43047,.34599E-3,.4156E-4,0
PRSS-1,2018-056B,2026-06-07T11:12:45.700704,14.81972686,.000175,97.7818,226.6058,76.4202,283.7206,0,U,43530,999,42699,.9279E-4,.685E-5,0
HAIYANG-1C,2018-068A,2026-06-07T11:27:55.567872,14.34175987,.0011895,98.5187,230.9259,120.0732,240.1634,0,U,43609,999,40569,.38514E-4,.65E-6,0
SSTL S1-4,2018-071A,2026-06-07T12:35:29.414400,14.96180584,.000132,97.5032,30.5403,107.8508,252.2858,0,U,43618,999,42149,.13643E-3,.1483E-4,0
HAIYANG-2B,2018-081A,2026-06-07T12:22:06.379968,13.79308716,.0000859,99.3287,167.4180,17.2170,342.9010,0,U,43655,999,38359,.48545E-4,.6E-7,0
CFOSAT,2018-083A,2026-06-07T11:01:18.660000,15.16314704,.0002417,97.3608,163.2773,97.7593,262.3915,0,U,43662,999,42096,.18186E-3,.3459E-4,0
TEN-KOH,2018-084G,2026-06-07T00:05:28.007232,15.02900039,.0010407,98.0783,349.9375,146.7289,213.4591,0,U,43677,999,41463,.21264E-3,.279E-4,0
DIWATA-2B,2018-084H,2026-06-07T12:00:00.139968,15.00406529,.0011995,98.1167,354.2880,202.1577,157.9129,0,U,43678,999,41476,.23247E-3,.286E-4,0
STARS-AO,2018-084J,2026-06-06T20:23:25.762272,15.16938409,.00021643,98.0518,11.1844,159.7090,200.4228,0,U,43679,999,41590,.35565223E-3,.6942E-4,0
AUTCUBE 2,2018-084K,2026-06-07T06:58:45.823296,15.10024180,.001052,98.0723,3.9409,79.0459,281.1952,0,U,43681,999,41543,.25073E-3,.401E-4,0
METOP-C,2018-087A,2026-06-07T10:11:56.933664,14.21509629,.0001396,98.6647,218.2066,139.8233,220.3048,0,U,43689,999,39344,.76408E-4,.124E-5,0
ES'HAIL 2,2018-090A,2026-06-07T04:59:41.853984,1.00273643,.0001929,0.0112,38.9909,72.2005,245.1501,0,U,43700,999,2757,0,.158E-5,0
MOHAMMED VI-B,2018-095A,2026-06-07T11:45:31.108032,14.77105099,.0001187,97.9553,230.9483,88.0969,272.0377,0,U,43717,999,40675,.10893E-3,.719E-5,0
HYSIS,2018-096A,2026-06-07T11:12:38.653920,14.78674979,.0001614,97.9837,225.2909,111.6400,248.4983,0,U,43719,999,40598,.13769E-3,.957E-5,0
COSMOS 2530 (RODNIK-S 16),2018-097A,2026-06-07T13:20:43.524384,12.42881090,.0020526,82.5142,228.2573,59.8258,300.4851,0,U,43751,999,34109,.10513E-3,.25E-6,0
COSMOS 2531 (RODNIK-S 17),2018-097B,2026-06-07T11:57:13.921920,12.42912493,.0017916,82.5188,229.3484,78.2765,282.0324,0,U,43752,999,34110,-.24373E-3,-.24E-6,0
COSMOS 2532 (RODNIK-S 18),2018-097C,2026-06-07T12:37:54.924096,12.42909574,.0019315,82.5132,228.1214,80.0461,280.2797,0,U,43753,999,34107,.16102E-3,.32E-6,0
MINXSS-2,2018-099A,2026-06-07T10:49:53.242752,15.46252121,.0006056,97.4533,234.4557,297.2360,62.8271,0,U,43758,999,41262,.69475E-3,.34216E-3,0
SIRION PATHFINDER-2,2018-099B,2026-06-07T09:40:53.010048,15.14464069,.0007949,97.4257,207.6939,343.9860,16.1120,0,U,43759,999,41114,.29855E-3,.543E-4,0
