S-NET D                 
1 43186U 18014G   26158.23535733  .00005577  00000+0  28879-3 0  9999
2 43186  97.5365  63.0881 0009744  60.1321 300.0879 15.16577805457257
S-NET B                 
1 43187U 18014H   26158.24661594  .00005353  00000+0  27750-3 0  9995
2 43187  97.5372  63.0855 0010325  55.8139 304.4071 15.16548674457256
S-NET A                 
1 43188U 18014J   26158.23428791  .00005626  00000+0  29119-3 0  9999
2 43188  97.5380  63.2802 0010216  56.3941 303.8265 15.16585449457255
S-NET C                 
1 43189U 18014K   26158.25044131  .00005394  00000+0  27958-3 0  9995
2 43189  97.5395  63.3700 0011433  49.3429 310.8795 15.16540740455805
PAZ                     
1 43215U 18020A   26158.49022948  .00002100  00000+0  10315-3 0  9991
2 43215  97.4449 166.0140 0001628  86.9449 273.1972 15.19162973459530
GOES 17                 
1 43226U 18022A   26158.47041571 -.00000168  00000+0  00000+0 0  9995
2 43226   0.9116  85.8814 0000671   7.4926 242.3626  1.00272183 30329
LKW-4                   
1 43236U 18025A   26158.21291291  .00043798  00000+0  51177-3 0  9997
2 43236  97.6345 328.3116 0001878 346.8289  13.2919 15.61484849458475
ZHUHAI-1 OVS-02         
1 43440U 18040B   26158.52006862  .00007978  00000+0  32330-3 0  9993
2 43440  97.0395 176.3238 0001683 313.8328  46.2772 15.24895740451245
ZHUHAI-1 OHS-02         
1 43441U 18040C   26158.51053642  .00007960  00000+0  31436-3 0  9998
2 43441  97.0378 183.2447 0007309 262.0569  97.9841 15.25740935112801
GAOFEN-6                
1 43484U 18048A   26158.51637704  .00000416  00000+0  66510-4 0  9991
2 43484  97.7757 221.5552 0011250 200.2583 159.8182 14.76620977431964
LUOJIA-1 01             
1 43485U 18048B   26158.48609503  .00002982  00000+0  33664-3 0  9997
2 43485  97.8094 236.8298 0009671 146.1073 214.0763 14.87250390432771
PAKTES 1A               
1 43529U 18056A   26158.52641780  .00004156  00000+0  34599-3 0  9996
2 43529  98.1305 314.6005 0022415 136.4623 223.8373 14.99065091430479
PRSS-1                  
1 43530U 18056B   26158.46719561  .00000685  00000+0  92790-4 0  9995
2 43530  97.7818 226.6058 0001750  76.4202 283.7206 14.81972686426990
HAIYANG-1C              
1 43609U 18068A   26158.47772648  .00000065  00000+0  38514-4 0  9997
2 43609  98.5187 230.9259 0011895 120.0732 240.1634 14.34175987405694
SSTL S1-4               
1 43618U 18071A   26158.52464600  .00001483  00000+0  13643-3 0  9993
2 43618  97.5032  30.5403 0001320 107.8508 252.2858 14.96180584421498
HAIYANG-2B              
1 43655U 18081A   26158.51535162  .00000006  00000+0  48545-4 0  9996
2 43655  99.3287 167.4180 0000859  17.2170 342.9010 13.79308716383592
CFOSAT                  
1 43662U 18083A   26158.45924375  .00003459  00000+0  18186-3 0  9999
2 43662  97.3608 163.2773 0002417  97.7593 262.3915 15.16314704420960
TEN-KOH                 
1 43677U 18084G   26158.00379638  .00002790  00000+0  21264-3 0  9991
2 43677  98.0783 349.9375 0010407 146.7289 213.4591 15.02900039414635
DIWATA-2B               
1 43678U 18084H   26158.50000162  .00002860  00000+0  23247-3 0  9991
2 43678  98.1167 354.2880 0011995 202.1577 157.9129 15.00406529414769
STARS-AO                
1 43679U 18084J   26157.84960373  .00006942  00000+0  35565-3 0  9998
2 43679  98.0518  11.1844 0002164 159.7090 200.4228 15.16938409415908
AUTCUBE 2               
1 43681U 18084K   26158.29080814  .00004010  00000+0  25073-3 0  9991
2 43681  98.0723   3.9409 0010520  79.0459 281.1952 15.10024180415437
METOP-C                 
1 43689U 18087A   26158.42496451  .00000124  00000+0  76408-4 0  9996
2 43689  98.6647 218.2066 0001396 139.8233 220.3048 14.21509629393446
ES'HAIL 2               
1 43700U 18090A   26158.20812331  .00000158  00000+0  00000+0 0  9996
2 43700   0.0112  38.9909 0001929  72.2005 245.1501  1.00273643 27570
MOHAMMED VI-B           
1 43717U 18095A   26158.48994338  .00000719  00000+0  10893-3 0  9995
2 43717  97.9553 230.9483 0001187  88.0969 272.0377 14.77105099406751
HYSIS                   
1 43719U 18096A   26158.46711405  .00000957  00000+0  13769-3 0  9997
2 43719  97.9837 225.2909 0001614 111.6400 248.4983 14.78674979405989
COSMOS 2530 (RODNIK-S *)
1 43751U 18097A   26158.55605931  .00000025  00000+0  10513-3 0  9990
2 43751  82.5142 228.2573 0020526  59.8258 300.4851 12.42881090341098
COSMOS 2531 (RODNIK-S *)
1 43752U 18097B   26158.49807780 -.00000024  00000+0 -24373-3 0  9990
2 43752  82.5188 229.3484 0017916  78.2765 282.0324 12.42912493341103
COSMOS 2532 (RODNIK-S *)
1 43753U 18097C   26158.52633014  .00000032  00000+0  16102-3 0  9990
2 43753  82.5132 228.1214 0019315  80.0461 280.2797 12.42909574341076
MINXSS-2                
1 43758U 18099A   26158.45131068  .00034216  00000+0  69475-3 0  9993
2 43758  97.4533 234.4557 0006056 297.2360  62.8271 15.46252121412626
SIRION PATHFINDER-2     
1 43759U 18099B   26158.40339132  .00005430  00000+0  29855-3 0  9995
2 43759  97.4257 207.6939 0007949 343.9860  16.1120 15.14464069411144
